$$SOE
2460714.500000000, A.D. 2025-Feb-08 00:00:00.0000, -2.053733115874086E+09, 2.446935168596609E+09, -4.023242389748621E+07,
2460721.500000000, A.D. 2025-Feb-15 00:00:00.0000, -2.055969921122972E+09, 2.444492713089992E+09, -3.991957598853099E+07,
2460728.500000000, A.D. 2025-Feb-22 00:00:00.0000, -2.058203667853399E+09, 2.442046523007824E+09, -3.960666790561426E+07,
2460735.500000000, A.D. 2025-Mar-01 00:00:00.0000, -2.060434349176003E+09, 2.439596600875340E+09, -3.929370026040590E+07,
2460742.500000000, A.D. 2025-Mar-08 00:00:00.0000, -2.062661957116595E+09, 2.437142949105044E+09, -3.898067381592166E+07,
2460749.500000000, A.D. 2025-Mar-15 00:00:00.0000, -2.064886482638391E+09, 2.434685571832224E+09, -3.866758933099496E+07,
2460756.500000000, A.D. 2025-Mar-22 00:00:00.0000, -2.067107917872404E+09, 2.432224475337527E+09, -3.835444731636417E+07,
2460763.500000000, A.D. 2025-Mar-29 00:00:00.0000, -2.069326256978505E+09, 2.429759666214839E+09, -3.804124809953701E+07,
2460770.500000000, A.D. 2025-Apr-05 00:00:00.0000, -2.071541495311913E+09, 2.427291150422873E+09, -3.772799197208059E+07,
2460777.500000000, A.D. 2025-Apr-12 00:00:00.0000, -2.073753628821064E+09, 2.424818933324699E+09, -3.741467923447466E+07,
2460784.500000000, A.D. 2025-Apr-19 00:00:00.0000, -2.075962653864056E+09, 2.422343019834106E+09, -3.710131019368339E+07,
2460791.500000000, A.D. 2025-Apr-26 00:00:00.0000, -2.078168567172009E+09, 2.419863414466141E+09, -3.678788515520799E+07,
2460798.500000000, A.D. 2025-May-03 00:00:00.0000, -2.080371365845668E+09, 2.417380121311346E+09, -3.647440441870642E+07,
2460805.500000000, A.D. 2025-May-10 00:00:00.0000, -2.082571047356646E+09, 2.414893143942746E+09, -3.616086827927613E+07,
2460812.500000000, A.D. 2025-May-17 00:00:00.0000, -2.084767609516597E+09, 2.412402485214849E+09, -3.584727704125535E+07,
2460819.500000000, A.D. 2025-May-24 00:00:00.0000, -2.086961050240372E+09, 2.409908146900486E+09, -3.553363106503379E+07,
2460826.500000000, A.D. 2025-May-31 00:00:00.0000, -2.089151366685414E+09, 2.407410129476730E+09, -3.521993085983622E+07,
2460833.500000000, A.D. 2025-Jun-07 00:00:00.0000, -2.091338554168293E+09, 2.404908433264890E+09, -3.490617708725929E+07,
2460840.500000000, A.D. 2025-Jun-14 00:00:00.0000, -2.093522607222981E+09, 2.402403060257941E+09, -3.459237031318331E+07,
2460847.500000000, A.D. 2025-Jun-21 00:00:00.0000, -2.095703521584064E+09, 2.399894013364210E+09, -3.427851088697541E+07,
2460854.500000000, A.D. 2025-Jun-28 00:00:00.0000, -2.097881293966704E+09, 2.397381294832171E+09, -3.396459909066415E+07,
2460861.500000000, A.D. 2025-Jul-05 00:00:00.0000, -2.100055921160084E+09, 2.394864906012977E+09, -3.365063524268436E+07,
2460868.500000000, A.D. 2025-Jul-12 00:00:00.0000, -2.102227399625323E+09, 2.392344847655540E+09, -3.333661971272194E+07,
2460875.500000000, A.D. 2025-Jul-19 00:00:00.0000, -2.104395725408293E+09, 2.389821120159246E+09, -3.302255291196322E+07,
2460882.500000000, A.D. 2025-Jul-26 00:00:00.0000, -2.106560894157414E+09, 2.387293723727879E+09, -3.270843528254902E+07,
2460889.500000000, A.D. 2025-Aug-02 00:00:00.0000, -2.108722901181037E+09, 2.384762658446553E+09, -3.239426729034436E+07,
2460896.500000000, A.D. 2025-Aug-09 00:00:00.0000, -2.110881741520985E+09, 2.382227924267280E+09, -3.208004942423248E+07,
2460903.500000000, A.D. 2025-Aug-16 00:00:00.0000, -2.113037409965339E+09, 2.379689520840172E+09, -3.176578221397960E+07,
2460910.500000000, A.D. 2025-Aug-23 00:00:00.0000, -2.115189900707810E+09, 2.377147447207085E+09, -3.145146629195368E+07,
2460917.500000000, A.D. 2025-Aug-30 00:00:00.0000, -2.117339206324776E+09, 2.374601702071939E+09, -3.113710247028029E+07,
2460924.500000000, A.D. 2025-Sep-06 00:00:00.0000, -2.119485317488120E+09, 2.372052285648217E+09, -3.082269162137699E+07,
2460931.500000000, A.D. 2025-Sep-13 00:00:00.0000, -2.121628225084605E+09, 2.369499200600900E+09, -3.050823441126406E+07,
2460938.500000000, A.D. 2025-Sep-20 00:00:00.0000, -2.123767921468571E+09, 2.366942450438568E+09, -3.019373132002282E+07,
2460945.500000000, A.D. 2025-Sep-27 00:00:00.0000, -2.125904399789392E+09, 2.364382038467414E+09, -2.987918279198158E+07,
2460952.500000000, A.D. 2025-Oct-04 00:00:00.0000, -2.128037653410396E+09, 2.361817967846552E+09, -2.956458928641772E+07,
2460959.500000000, A.D. 2025-Oct-11 00:00:00.0000, -2.130167675792892E+09, 2.359250241801818E+09, -2.924995127146566E+07,
2460966.500000000, A.D. 2025-Oct-18 00:00:00.0000, -2.132294460561647E+09, 2.356678863723909E+09, -2.893526920962739E+07,
2460973.500000000, A.D. 2025-Oct-25 00:00:00.0000, -2.134418001612283E+09, 2.354103837162189E+09, -2.862054354682600E+07,
2460980.500000000, A.D. 2025-Nov-01 00:00:00.0000, -2.136538293221175E+09, 2.351525165730058E+09, -2.830577470744896E+07,
2460987.500000000, A.D. 2025-Nov-08 00:00:00.0000, -2.138655330123360E+09, 2.348942852890926E+09, -2.799096310127437E+07,
2460994.500000000, A.D. 2025-Nov-15 00:00:00.0000, -2.140769107410633E+09, 2.346356901566695E+09, -2.767610916082478E+07,
2461001.500000000, A.D. 2025-Nov-22 00:00:00.0000, -2.142879619847205E+09, 2.343767313789317E+09, -2.736121342831075E+07,
2461008.500000000, A.D. 2025-Nov-29 00:00:00.0000, -2.144986860756185E+09, 2.341174091530862E+09, -2.704627658556986E+07,
2461015.500000000, A.D. 2025-Dec-06 00:00:00.0000, -2.147090822754360E+09, 2.338577238576467E+09, -2.673129922943091E+07,
2461022.500000000, A.D. 2025-Dec-13 00:00:00.0000, -2.149191499901662E+09, 2.335976760070215E+09, -2.641628170787442E+07,
2461029.500000000, A.D. 2025-Dec-20 00:00:00.0000, -2.151288887772166E+09, 2.333372660757436E+09, -2.610122425388396E+07,
2461036.500000000, A.D. 2025-Dec-27 00:00:00.0000, -2.153382982520427E+09, 2.330764944515173E+09, -2.578612710680640E+07,
2461043.500000000, A.D. 2026-Jan-03 00:00:00.0000, -2.155473780402397E+09, 2.328153614555800E+09, -2.547099053770113E+07,
2461050.500000000, A.D. 2026-Jan-10 00:00:00.0000, -2.157561277641148E+09, 2.325538673625572E+09, -2.515581484419596E+07,
2461057.500000000, A.D. 2026-Jan-17 00:00:00.0000, -2.159645470404843E+09, 2.322920124107368E+09, -2.484060034360051E+07,
2461064.500000000, A.D. 2026-Jan-24 00:00:00.0000, -2.161726354819008E+09, 2.320297968051156E+09, -2.452534736947584E+07,
2461071.500000000, A.D. 2026-Jan-31 00:00:00.0000, -2.163803926989657E+09, 2.317672207125718E+09, -2.421005627431297E+07,
2461078.500000000, A.D. 2026-Feb-07 00:00:00.0000, -2.165878182975752E+09, 2.315042842435213E+09, -2.389472744853783E+07,
2461085.500000000, A.D. 2026-Feb-14 00:00:00.0000, -2.167949118457934E+09, 2.312409874186157E+09, -2.357936138019276E+07,
2461092.500000000, A.D. 2026-Feb-21 00:00:00.0000, -2.170016727715973E+09, 2.309773301782649E+09, -2.326395874358296E+07,
2461099.500000000, A.D. 2026-Feb-28 00:00:00.0000, -2.172081002999766E+09, 2.307133125503932E+09, -2.294852032302427E+07,
2461106.500000000, A.D. 2026-Mar-07 00:00:00.0000, -2.174141936352444E+09, 2.304489347814676E+09, -2.263304674217057E+07,
2461113.500000000, A.D. 2026-Mar-14 00:00:00.0000, -2.176199521109871E+09, 2.301841971975392E+09, -2.231753844404984E+07,
2461120.500000000, A.D. 2026-Mar-21 00:00:00.0000, -2.178253751293658E+09, 2.299191000851029E+09, -2.200199584840190E+07,
2461127.500000000, A.D. 2026-Mar-28 00:00:00.0000, -2.180304620907072E+09, 2.296536436946456E+09, -2.168641941783464E+07,
2461134.500000000, A.D. 2026-Apr-04 00:00:00.0000, -2.182352123737593E+09, 2.293878282703179E+09, -2.137080965617836E+07,
2461141.500000000, A.D. 2026-Apr-11 00:00:00.0000, -2.184396253392162E+09, 2.291216540697312E+09, -2.105516709339988E+07,
2461148.500000000, A.D. 2026-Apr-18 00:00:00.0000, -2.186437003405738E+09, 2.288551213732124E+09, -2.073949227202928E+07,
2461155.500000000, A.D. 2026-Apr-25 00:00:00.0000, -2.188474367377085E+09, 2.285882304839823E+09, -2.042378573789966E+07,
2461162.500000000, A.D. 2026-May-02 00:00:00.0000, -2.190508339100774E+09, 2.283209817162971E+09, -2.010804804024398E+07,
2461169.500000000, A.D. 2026-May-09 00:00:00.0000, -2.192538912570417E+09, 2.280533753649305E+09, -1.979227975782347E+07,
2461176.500000000, A.D. 2026-May-16 00:00:00.0000, -2.194566081474789E+09, 2.277854116698323E+09, -1.947648157432175E+07,
2461183.500000000, A.D. 2026-May-23 00:00:00.0000, -2.196589838134744E+09, 2.275170908782044E+09, -1.916065432413113E+07,
2461190.500000000, A.D. 2026-May-30 00:00:00.0000, -2.198610173959157E+09, 2.272484134359541E+09, -1.884479879178405E+07,
2461197.500000000, A.D. 2026-Jun-06 00:00:00.0000, -2.200627081737091E+09, 2.269793799811708E+09, -1.852891550351322E+07,
2461204.500000000, A.D. 2026-Jun-13 00:00:00.0000, -2.202640556100168E+09, 2.267099911595205E+09, -1.821300483105886E+07,
2461211.500000000, A.D. 2026-Jun-20 00:00:00.0000, -2.204650592656180E+09, 2.264402475541758E+09, -1.789706712283266E+07,
2461218.500000000, A.D. 2026-Jun-27 00:00:00.0000, -2.206657187492284E+09, 2.261701496962956E+09, -1.758110273469496E+07,
2461225.500000000, A.D. 2026-Jul-04 00:00:00.0000, -2.208660337047888E+09, 2.258996980785709E+09, -1.726511202393317E+07,
2461232.500000000, A.D. 2026-Jul-11 00:00:00.0000, -2.210660038103340E+09, 2.256288931586488E+09, -1.694909534079099E+07,
2461239.500000000, A.D. 2026-Jul-18 00:00:00.0000, -2.212656287791686E+09, 2.253577353550163E+09, -1.663305302421117E+07,
2461246.500000000, A.D. 2026-Jul-25 00:00:00.0000, -2.214649083609086E+09, 2.250862250356216E+09, -1.631698540404105E+07,
2461253.500000000, A.D. 2026-Aug-01 00:00:00.0000, -2.216638423375821E+09, 2.248143624944275E+09, -1.600089281824136E+07,
2461260.500000000, A.D. 2026-Aug-08 00:00:00.0000, -2.218624304933047E+09, 2.245421479123181E+09, -1.568477566788018E+07,
2461267.500000000, A.D. 2026-Aug-15 00:00:00.0000, -2.220606725160323E+09, 2.242695813474088E+09, -1.536863451127207E+07,
2461274.500000000, A.D. 2026-Aug-22 00:00:00.0000, -2.222585679075077E+09, 2.239966628769044E+09, -1.505247002770853E+07,
$$EOE